0 CZ-4C R/B
1 38355U 12029B   13283.41842997 -.00000047  00000-0  00000+0 0  2421
2 38355 100.1231 066.3793 0161770 248.3666 110.0166 13.46031049 67149
0 CZ-4C R/B
1 38355U 12029B   13285.79699782 -.00000047  00000-0  00000+0 0  2437
2 38355 100.1234 068.7795 0161825 242.5737 115.8854 13.46031105 67461
0 CZ-4C R/B
1 38355U 12029B   13287.95257753 -.00000047  00000-0  00000+0 0  2446
2 38355 100.1236 070.9549 0161874 237.3287 121.2140 13.46031323 67754
0 CZ-4C R/B
1 38355U 12029B   13289.95949895 -.00000047  00000-0  00000+0 0  2454
2 38355 100.1238 072.9804 0161923 232.4500 126.1827 13.46031483 68025
0 CZ-4C R/B
1 38355U 12029B   13292.04075288 -.00000047  00000-0  00000+0 0  2465
2 38355 100.1241 075.0810 0161969 227.3791 131.3586 13.46031701 68309
0 CZ-4C R/B
1 38355U 12029B   13294.04767833 -.00000047  00000-0  00000+0 0  2472
2 38355 100.1244 077.1067 0162018 222.4996 136.3497 13.46031845 68572
0 CZ-4C R/B
1 38355U 12029B   13296.05460552 -.00000047  00000-0  00000+0 0  2484
2 38355 100.1247 079.1323 0162066 217.6240 141.3463 13.46031933 68840
